[{"OBJECT_NAME":"STARLINK-36936","OBJECT_ID":"2026-039AC","EPOCH":"2026-03-10T02:00:03.000384","MEAN_MOTION":15.85985902,"ECCENTRICITY":0.0001433,"INCLINATION":42.9973,"RA_OF_ASC_NODE":52.2425,"ARG_OF_PERICENTER":261.2484,"MEAN_ANOMALY":340.4053,"EPHEMERIS_TYPE":0,"CLASSIFICATION_TYPE":"U","NORAD_CAT_ID":68012,"ELEMENT_SET_NO":999,"REV_AT_EPOCH":294,"BSTAR":-0.0073353,"MEAN_MOTION_DOT":-0.01631839,"MEAN_MOTION_DDOT":0},{"OBJECT_NAME":"STARLINK-36967","OBJECT_ID":"2026-039AD","EPOCH":"2026-03-10T02:00:03.000384","MEAN_MOTION":15.85477863,"ECCENTRICITY":0.0001434,"INCLINATION":42.9974,"RA_OF_ASC_NODE":52.2811,"ARG_OF_PERICENTER":256.0223,"MEAN_ANOMALY":330.3744,"EPHEMERIS_TYPE":0,"CLASSIFICATION_TYPE":"U","NORAD_CAT_ID":68013,"ELEMENT_SET_NO":999,"REV_AT_EPOCH":294,"BSTAR":-0.0074109,"MEAN_MOTION_DOT":-0.01610952,"MEAN_MOTION_DDOT":0},{"OBJECT_NAME":"STARLINK-36985","OBJECT_ID":"2026-039AE","EPOCH":"2026-03-10T02:00:03.000384","MEAN_MOTION":15.85865758,"ECCENTRICITY":0.0001459,"INCLINATION":42.9974,"RA_OF_ASC_NODE":52.2528,"ARG_OF_PERICENTER":251.8442,"MEAN_ANOMALY":345.9962,"EPHEMERIS_TYPE":0,"CLASSIFICATION_TYPE":"U","NORAD_CAT_ID":68014,"ELEMENT_SET_NO":999,"REV_AT_EPOCH":294,"BSTAR":-0.0073831,"MEAN_MOTION_DOT":-0.01632662,"MEAN_MOTION_DDOT":0},{"OBJECT_NAME":"STARLINK-36335","OBJECT_ID":"2026-040A","EPOCH":"2026-03-10T02:00:03.000384","MEAN_MOTION":16.04545663,"ECCENTRICITY":0.0001184,"INCLINATION":97.2779,"RA_OF_ASC_NODE":17.292,"ARG_OF_PERICENTER":110.0381,"MEAN_ANOMALY":121.0101,"EPHEMERIS_TYPE":0,"CLASSIFICATION_TYPE":"U","NORAD_CAT_ID":68015,"ELEMENT_SET_NO":999,"REV_AT_EPOCH":243,"BSTAR":-0.0017695,"MEAN_MOTION_DOT":-0.01162986,"MEAN_MOTION_DDOT":0.00045685},{"OBJECT_NAME":"STARLINK-36923","OBJECT_ID":"2026-040B","EPOCH":"2026-03-10T02:00:03.000384","MEAN_MOTION":16.04757498,"ECCENTRICITY":0.0001019,"INCLINATION":97.2779,"RA_OF_ASC_NODE":17.2944,"ARG_OF_PERICENTER":100.8516,"MEAN_ANOMALY":135.5774,"EPHEMERIS_TYPE":0,"CLASSIFICATION_TYPE":"U","NORAD_CAT_ID":68016,"ELEMENT_SET_NO":999,"REV_AT_EPOCH":248,"BSTAR":-0.0017538,"MEAN_MOTION_DOT":-0.0116738,"MEAN_MOTION_DDOT":0.00046122},{"OBJECT_NAME":"STARLINK-36568","OBJECT_ID":"2026-040C","EPOCH":"2026-03-10T02:00:03.000384","MEAN_MOTION":16.04852802,"ECCENTRICITY":0.0001107,"INCLINATION":97.2777,"RA_OF_ASC_NODE":17.2956,"ARG_OF_PERICENTER":109.7123,"MEAN_ANOMALY":129.189,"EPHEMERIS_TYPE":0,"CLASSIFICATION_TYPE":"U","NORAD_CAT_ID":68017,"ELEMENT_SET_NO":999,"REV_AT_EPOCH":248,"BSTAR":-0.0017331,"MEAN_MOTION_DOT":-0.01160329,"MEAN_MOTION_DDOT":0.0004566},{"OBJECT_NAME":"STARLINK-36930","OBJECT_ID":"2026-040D","EPOCH":"2026-03-10T02:00:03.000384","MEAN_MOTION":16.04652527,"ECCENTRICITY":0.000104,"INCLINATION":97.2777,"RA_OF_ASC_NODE":17.2933,"ARG_OF_PERICENTER":107.4866,"MEAN_ANOMALY":126.2398,"EPHEMERIS_TYPE":0,"CLASSIFICATION_TYPE":"U","NORAD_CAT_ID":68018,"ELEMENT_SET_NO":999,"REV_AT_EPOCH":248,"BSTAR":-0.0017619,"MEAN_MOTION_DOT":-0.01165402,"MEAN_MOTION_DDOT":0.0004592},{"OBJECT_NAME":"STARLINK-36921","OBJECT_ID":"2026-040E","EPOCH":"2026-03-09T22:00:01.999584","MEAN_MOTION":16.05419566,"ECCENTRICITY":9.099e-5,"INCLINATION":97.278,"RA_OF_ASC_NODE":17.1161,"ARG_OF_PERICENTER":98.8732,"MEAN_ANOMALY":261.9757,"EPHEMERIS_TYPE":0,"CLASSIFICATION_TYPE":"U","NORAD_CAT_ID":68019,"ELEMENT_SET_NO":999,"REV_AT_EPOCH":246,"BSTAR":-0.0016822888,"MEAN_MOTION_DOT":-0.01165465,"MEAN_MOTION_DDOT":0.00046350949},{"OBJECT_NAME":"STARLINK-36928","OBJECT_ID":"2026-040F","EPOCH":"2026-03-10T02:00:03.000384","MEAN_MOTION":16.04939697,"ECCENTRICITY":0.0001039,"INCLINATION":97.2774,"RA_OF_ASC_NODE":17.2959,"ARG_OF_PERICENTER":104.366,"MEAN_ANOMALY":136.4674,"EPHEMERIS_TYPE":0,"CLASSIFICATION_TYPE":"U","NORAD_CAT_ID":68020,"ELEMENT_SET_NO":999,"REV_AT_EPOCH":248,"BSTAR":-0.0017355,"MEAN_MOTION_DOT":-0.01167955,"MEAN_MOTION_DDOT":0.00046265},{"OBJECT_NAME":"STARLINK-36858","OBJECT_ID":"2026-040G","EPOCH":"2026-03-10T02:00:03.000384","MEAN_MOTION":16.05152021,"ECCENTRICITY":0.00011,"INCLINATION":97.2768,"RA_OF_ASC_NODE":17.2977,"ARG_OF_PERICENTER":115.3765,"MEAN_ANOMALY":130.3771,"EPHEMERIS_TYPE":0,"CLASSIFICATION_TYPE":"U","NORAD_CAT_ID":68021,"ELEMENT_SET_NO":999,"REV_AT_EPOCH":248,"BSTAR":-0.0017453,"MEAN_MOTION_DOT":-0.01189432,"MEAN_MOTION_DDOT":0.00047973},{"OBJECT_NAME":"STARLINK-36916","OBJECT_ID":"2026-040H","EPOCH":"2026-03-10T02:00:03.000384","MEAN_MOTION":16.05260061,"ECCENTRICITY":0.0001085,"INCLINATION":97.2774,"RA_OF_ASC_NODE":17.2995,"ARG_OF_PERICENTER":117.5124,"MEAN_ANOMALY":130.9538,"EPHEMERIS_TYPE":0,"CLASSIFICATION_TYPE":"U","NORAD_CAT_ID":68022,"ELEMENT_SET_NO":999,"REV_AT_EPOCH":248,"BSTAR":-0.0017403,"MEAN_MOTION_DOT":-0.01193769,"MEAN_MOTION_DDOT":0.0004836},{"OBJECT_NAME":"STARLINK-36871","OBJECT_ID":"2026-040J","EPOCH":"2026-03-10T02:00:03.000384","MEAN_MOTION":16.05343997,"ECCENTRICITY":0.0001051,"INCLINATION":97.277,"RA_OF_ASC_NODE":17.3002,"ARG_OF_PERICENTER":108.8024,"MEAN_ANOMALY":142.2293,"EPHEMERIS_TYPE":0,"CLASSIFICATION_TYPE":"U","NORAD_CAT_ID":68023,"ELEMENT_SET_NO":999,"REV_AT_EPOCH":248,"BSTAR":-0.0016727,"MEAN_MOTION_DOT":-0.01153685,"MEAN_MOTION_DDOT":0.00045447},{"OBJECT_NAME":"STARLINK-36891","OBJECT_ID":"2026-040K","EPOCH":"2026-03-10T02:00:03.000384","MEAN_MOTION":16.05475174,"ECCENTRICITY":0.0001082,"INCLINATION":97.2767,"RA_OF_ASC_NODE":17.3019,"ARG_OF_PERICENTER":114.3316,"MEAN_ANOMALY":139.8826,"EPHEMERIS_TYPE":0,"CLASSIFICATION_TYPE":"U","NORAD_CAT_ID":68024,"ELEMENT_SET_NO":999,"REV_AT_EPOCH":248,"BSTAR":-0.0016767,"MEAN_MOTION_DOT":-0.01165523,"MEAN_MOTION_DDOT":0.00046386},{"OBJECT_NAME":"STARLINK-36378","OBJECT_ID":"2026-040L","EPOCH":"2026-03-10T02:00:03.000384","MEAN_MOTION":16.05697408,"ECCENTRICITY":9.66e-5,"INCLINATION":97.2776,"RA_OF_ASC_NODE":17.3045,"ARG_OF_PERICENTER":106.9285,"MEAN_ANOMALY":152.851,"EPHEMERIS_TYPE":0,"CLASSIFICATION_TYPE":"U","NORAD_CAT_ID":68025,"ELEMENT_SET_NO":999,"REV_AT_EPOCH":243,"BSTAR":-0.0016578,"MEAN_MOTION_DOT":-0.01168068,"MEAN_MOTION_DDOT":0.000467},{"OBJECT_NAME":"STARLINK-36884","OBJECT_ID":"2026-040M","EPOCH":"2026-03-10T02:00:03.000384","MEAN_MOTION":16.05592789,"ECCENTRICITY":0.0001074,"INCLINATION":97.2772,"RA_OF_ASC_NODE":17.3028,"ARG_OF_PERICENTER":118.2244,"MEAN_ANOMALY":138.8618,"EPHEMERIS_TYPE":0,"CLASSIFICATION_TYPE":"U","NORAD_CAT_ID":68026,"ELEMENT_SET_NO":999,"REV_AT_EPOCH":248,"BSTAR":-0.001683,"MEAN_MOTION_DOT":-0.01178154,"MEAN_MOTION_DDOT":0.00047387},{"OBJECT_NAME":"STARLINK-36940","OBJECT_ID":"2026-040N","EPOCH":"2026-03-10T02:00:03.000384","MEAN_MOTION":16.07557999,"ECCENTRICITY":7.55e-5,"INCLINATION":97.277,"RA_OF_ASC_NODE":17.3261,"ARG_OF_PERICENTER":98.7457,"MEAN_ANOMALY":213.0567,"EPHEMERIS_TYPE":0,"CLASSIFICATION_TYPE":"U","NORAD_CAT_ID":68027,"ELEMENT_SET_NO":999,"REV_AT_EPOCH":258,"BSTAR":-0.0014463,"MEAN_MOTION_DOT":-0.01143239,"MEAN_MOTION_DDOT":0.00045925}]
