STARLINK-36936          
1 68012U 26039AC  26069.08336806 -.01631839  00000+0 -73353-2 0  9999
2 68012  42.9973  52.2425 0001433 261.2484 340.4053 15.85985902  2947
STARLINK-36967          
1 68013U 26039AD  26069.08336806 -.01610952  00000+0 -74109-2 0  9993
2 68013  42.9974  52.2811 0001434 256.0223 330.3744 15.85477863  2949
STARLINK-36985          
1 68014U 26039AE  26069.08336806 -.01632662  00000+0 -73831-2 0  9997
2 68014  42.9974  52.2528 0001459 251.8442 345.9962 15.85865758  2946
STARLINK-36335          
1 68015U 26040A   26069.08336806 -.01162986  45685-3 -17695-2 0  9995
2 68015  97.2779  17.2920 0001184 110.0381 121.0101 16.04545663  2437
STARLINK-36923          
1 68016U 26040B   26069.08336806 -.01167380  46122-3 -17538-2 0  9992
2 68016  97.2779  17.2944 0001019 100.8516 135.5774 16.04757498  2480
STARLINK-36568          
1 68017U 26040C   26069.08336806 -.01160329  45660-3 -17331-2 0  9996
2 68017  97.2777  17.2956 0001107 109.7123 129.1890 16.04852802  2485
STARLINK-36930          
1 68018U 26040D   26069.08336806 -.01165402  45920-3 -17619-2 0  9992
2 68018  97.2777  17.2933 0001040 107.4866 126.2398 16.04652527  2489
STARLINK-36921          
1 68019U 26040E   26068.91668981 -.01165465  46351-3 -16823-2 0  9990
2 68019  97.2780  17.1161 0000909  98.8732 261.9757 16.05419566  2463
STARLINK-36928          
1 68020U 26040F   26069.08336806 -.01167955  46265-3 -17355-2 0  9990
2 68020  97.2774  17.2959 0001039 104.3660 136.4674 16.04939697  2489
STARLINK-36858          
1 68021U 26040G   26069.08336806 -.01189432  47973-3 -17453-2 0  9991
2 68021  97.2768  17.2977 0001100 115.3765 130.3771 16.05152021  2480
STARLINK-36916          
1 68022U 26040H   26069.08336806 -.01193769  48360-3 -17403-2 0  9996
2 68022  97.2774  17.2995 0001085 117.5124 130.9538 16.05260061  2484
STARLINK-36871          
1 68023U 26040J   26069.08336806 -.01153685  45447-3 -16727-2 0  9991
2 68023  97.2770  17.3002 0001051 108.8024 142.2293 16.05343997  2480
STARLINK-36891          
1 68024U 26040K   26069.08336806 -.01165523  46386-3 -16767-2 0  9993
2 68024  97.2767  17.3019 0001082 114.3316 139.8826 16.05475174  2482
STARLINK-36378          
1 68025U 26040L   26069.08336806 -.01168068  46700-3 -16578-2 0  9991
2 68025  97.2776  17.3045 0000966 106.9285 152.8510 16.05697408  2430
STARLINK-36884          
1 68026U 26040M   26069.08336806 -.01178154  47387-3 -16830-2 0  9992
2 68026  97.2772  17.3028 0001074 118.2244 138.8618 16.05592789  2484
STARLINK-36940          
1 68027U 26040N   26069.08336806 -.01143239  45925-3 -14463-2 0  9995
2 68027  97.2770  17.3261 0000755  98.7457 213.0567 16.07557999  2581
